TEVEL2-7                
1 63238U 25052AE  26068.66113296  .00019244  00000+0  69668-3 0  9999
2 63238  97.4054 324.3041 0008104 124.6830 235.5175 15.28414096 54802
STARLINK-35216          
1 65516U 25198AA  26068.92840175  .00019510  00000+0  66893-3 0  9996
2 65516  53.1571 270.0946 0000844 140.6560 219.4502 15.30208648 28654
