[{"OBJECT_NAME":"TEVEL2-7","OBJECT_ID":"2025-052AE","EPOCH":"2026-03-09T15:52:01.887744","MEAN_MOTION":15.28414096,"ECCENTRICITY":0.00081048,"INCLINATION":97.4054,"RA_OF_ASC_NODE":324.3041,"ARG_OF_PERICENTER":124.683,"MEAN_ANOMALY":235.5175,"EPHEMERIS_TYPE":0,"CLASSIFICATION_TYPE":"U","NORAD_CAT_ID":63238,"ELEMENT_SET_NO":999,"REV_AT_EPOCH":5480,"BSTAR":0.00069668191,"MEAN_MOTION_DOT":0.00019244,"MEAN_MOTION_DDOT":0},{"OBJECT_NAME":"STARLINK-35216","OBJECT_ID":"2025-198AA","EPOCH":"2026-03-09T22:16:53.911200","MEAN_MOTION":15.30208648,"ECCENTRICITY":8.442e-5,"INCLINATION":53.1571,"RA_OF_ASC_NODE":270.0946,"ARG_OF_PERICENTER":140.656,"MEAN_ANOMALY":219.4502,"EPHEMERIS_TYPE":0,"CLASSIFICATION_TYPE":"U","NORAD_CAT_ID":65516,"ELEMENT_SET_NO":999,"REV_AT_EPOCH":2865,"BSTAR":0.00066892878,"MEAN_MOTION_DOT":0.0001951,"MEAN_MOTION_DDOT":0}]
